STARLINK-31545          
1 59400U 24064C   26164.90779493  .00000783  00000+0  38012-4 0  9996
2 59400  43.0093 232.5673 0003091 274.1443  85.9056 15.27582275123941
STARLINK-31507          
1 59401U 24064D   26164.91423427 -.00002195  00000+0 -70299-4 0  9995
2 59401  43.0060 232.6080 0001985 255.0798 104.9834 15.27564091123885
STARLINK-31543          
1 59402U 24064E   26164.87454083 -.00000316  00000+0 -19697-5 0  9992
2 59402  43.0057 233.1745 0001203 282.7678  77.3039 15.27577035123931
STARLINK-31366          
1 59403U 24064F   26164.46808607  .00002149  00000+0  87598-4 0  9991
2 59403  43.0143 235.2966 0003301 286.5466  73.5023 15.27585963123877
STARLINK-31374          
1 59404U 24064G   26164.77441194  .00000979  00000+0  45113-4 0  9996
2 59404  43.0052 182.4795 0001568 278.7663  81.3011 15.27583126124251
STARLINK-31400          
1 59405U 24064H   26164.90010213 -.00001389  00000+0 -40966-4 0  9995
2 59405  43.0058 232.5079 0001940 267.3061  92.7569 15.27570977123949
STARLINK-31391          
1 59406U 24064J   26164.90393397 -.00002743  00000+0 -90148-4 0  9995
2 59406  43.0081 232.5368 0001852 279.7296  80.3347 15.27586754123943
STARLINK-31387          
1 59407U 24064K   26164.87839620 -.00000367  00000+0 -38353-5 0  9997
2 59407  42.9929 233.2068 0001369 275.0312  85.0383 15.27575659123932
STARLINK-31396          
1 59409U 24064M   26164.85029210  .00000145  00000+0  14795-4 0  9998
2 59409  42.9983 222.5972 0001340 283.2673  76.8029 15.27577860123996
STARLINK-31412          
1 59410U 24064N   26162.50264133  .00000102  00000+0  13233-4 0  9994
2 59410  43.0015 246.3329 0002561 273.9588  86.0971 15.27577658123571
STARLINK-31483          
1 59411U 24064P   26164.47580064  .00002238  00000+0  90795-4 0  9997
2 59411  42.9997 235.3399 0001981 275.1696  84.8929 15.27591448123878
STARLINK-31568          
1 59412U 24064Q   26164.47838758 -.00000689  00000+0 -15517-4 0  9993
2 59412  43.0005 235.3606 0001259 274.1252  85.9456 15.27568404123870
STARLINK-31615          
1 59413U 24064R   26164.86394079 -.00000095  00000+0  60640-5 0  9998
2 59413  42.9990 226.1537 0001297 277.0385  83.0319 15.27575686124018
STARLINK-31457          
1 59414U 24064S   26164.86651032  .00000176  00000+0  15929-4 0  9992
2 59414  42.9976 226.1632 0001254 286.2564  73.8149 15.27577174124015
STARLINK-31398          
1 59415U 24064T   26164.91808823  .00003248  00000+0  12757-3 0  9999
2 59415  42.9997 232.6517 0001850 328.6335  31.4406 15.27562103123945
STARLINK-31399          
1 59416U 24064U   26164.91165713 -.00000046  00000+0  78608-5 0  9997
2 59416  43.0040 232.5881 0001366 270.3089  89.7606 15.27577974123941
STARLINK-31401          
1 59417U 24064V   26164.86009085 -.00000124  00000+0  50170-5 0  9992
2 59417  43.0024 226.1400 0001237 270.5644  89.5066 15.27579920123767
STARLINK-31414          
1 59418U 24064W   26163.49113930  .00000787  00000+0  38158-4 0  9991
2 59418  43.0153 240.8615 0002940 282.7600  77.2923 15.27589035123721
STARLINK-31415          
1 59419U 24064X   26164.49763863  .00000545  00000+0  29317-4 0  9998
2 59419  42.9971 235.5058 0001371 273.2847  86.7848 15.27581134123874
STARLINK-31466          
1 59420U 24064Y   26164.49377934  .00000956  00000+0  44234-4 0  9991
2 59420  43.0062 235.4785 0000743 279.3009  80.7758 15.27585386123871
STARLINK-11087 [DTC]    
1 59421U 24065A   26164.78200651 -.00000754  00000+0 -13777-5 0  9993
2 59421  53.1589 340.3249 0000413 110.0815 250.0247 15.69697339126606
STARLINK-11090 [DTC]    
1 59422U 24065B   26164.76728111  .00001553  00000+0  17658-4 0  9995
2 59422  53.1571 340.2224 0000462  94.1733 265.9338 15.69716092126621
STARLINK-11093 [DTC]    
1 59423U 24065C   26164.77219235 -.00000294  00000+0  24315-5 0  9990
2 59423  53.1601 340.2591 0001104  81.1039 279.0104 15.69701981126619
STARLINK-11083 [DTC]    
1 59424U 24065D   26164.77709668 -.00000076  00000+0  42361-5 0  9994
2 59424  53.1598 340.2924 0001302 131.6855 228.4274 15.69702819126563
STARLINK-11085 [DTC]    
1 59425U 24065E   26164.76237852 -.00000170  00000+0  34584-5 0  9998
2 59425  53.1601 340.1913 0001124  97.2463 262.8682 15.69705214126567
STARLINK-11089 [DTC]    
1 59426U 24065F   26164.72323866 -.00000278  00000+0  25590-5 0  9992
2 59426  53.1599 340.6787 0001002  76.8020 283.3109 15.69705562126608
STARLINK-31757          
1 59427U 24065G   26164.82100411 -.00000242  00000+0  39700-5 0  9992
2 59427  53.1608 194.7359 0001191  84.6021 275.5118 15.34388480123653
STARLINK-31773          
1 59429U 24065J   26164.38116463  .00001365  00000+0  58204-4 0  9994
2 59429  53.1592 199.0860 0001005  82.6226 277.4889 15.30199166123553
STARLINK-31772          
1 59430U 24065K   26164.77569183 -.00000172  00000+0  63110-5 0  9999
2 59430  53.1599 195.1489 0001104  97.0133 263.0993 15.30193482123645
STARLINK-31613          
1 59431U 24065L   26164.56676596  .00004070  00000+0  13148-3 0  9998
2 59431  53.1588 195.9826 0001239  75.9856 284.1284 15.34410993123610
