OBJECT_NAME,OBJECT_ID,EPOCH,MEAN_MOTION,ECCENTRICITY,INCLINATION,RA_OF_ASC_NODE,ARG_OF_PERICENTER,MEAN_ANOMALY,EPHEMERIS_TYPE,CLASSIFICATION_TYPE,NORAD_CAT_ID,ELEMENT_SET_NO,REV_AT_EPOCH,BSTAR,MEAN_MOTION_DOT,MEAN_MOTION_DDOT
STARLINK-31545,2024-064C,2026-06-13T21:47:13.481952,15.27582275,.00030913,43.0093,232.5673,274.1443,85.9056,0,U,59400,999,12394,.38011964E-4,.783E-5,0
STARLINK-31507,2024-064D,2026-06-13T21:56:29.840928,15.27564091,.00019857,43.0060,232.6080,255.0798,104.9834,0,U,59401,999,12388,-.70299423E-4,-.2195E-4,0
STARLINK-31543,2024-064E,2026-06-13T20:59:20.327712,15.27577035,.00012035,43.0057,233.1745,282.7678,77.3039,0,U,59402,999,12393,-.1969696E-5,-.316E-5,0
STARLINK-31366,2024-064F,2026-06-13T11:14:02.636448,15.27585963,.00033012,43.0143,235.2966,286.5466,73.5023,0,U,59403,999,12387,.87597843E-4,.2149E-4,0
STARLINK-31374,2024-064G,2026-06-13T18:35:09.191616,15.27583126,.00015684,43.0052,182.4795,278.7663,81.3011,0,U,59404,999,12425,.45113487E-4,.979E-5,0
STARLINK-31400,2024-064H,2026-06-13T21:36:08.824032,15.27570977,.00019409,43.0058,232.5079,267.3061,92.7569,0,U,59405,999,12394,-.40966457E-4,-.1389E-4,0
STARLINK-31391,2024-064J,2026-06-13T21:41:39.895008,15.27586754,.00018525,43.0081,232.5368,279.7296,80.3347,0,U,59406,999,12394,-.90148061E-4,-.2743E-4,0
STARLINK-31387,2024-064K,2026-06-13T21:04:53.431680,15.27575659,.0001369,42.9929,233.2068,275.0312,85.0383,0,U,59407,999,12393,-.3835267E-5,-.367E-5,0
STARLINK-31396,2024-064M,2026-06-13T20:24:25.237440,15.27577860,.00013405,42.9983,222.5972,283.2673,76.8029,0,U,59409,999,12399,.14795213E-4,.145E-5,0
STARLINK-31412,2024-064N,2026-06-11T12:03:48.210912,15.27577658,.0002561,43.0015,246.3329,273.9588,86.0971,0,U,59410,999,12357,.13233E-4,.102E-5,0
STARLINK-31483,2024-064P,2026-06-13T11:25:09.175296,15.27591448,.00019818,42.9997,235.3399,275.1696,84.8929,0,U,59411,999,12387,.90795095E-4,.2238E-4,0
STARLINK-31568,2024-064Q,2026-06-13T11:28:52.686912,15.27568404,.00012595,43.0005,235.3606,274.1252,85.9456,0,U,59412,999,12387,-.15517149E-4,-.689E-5,0
STARLINK-31615,2024-064R,2026-06-13T20:44:04.484256,15.27575686,.00012974,42.9990,226.1537,277.0385,83.0319,0,U,59413,999,12401,.6064048E-5,-.95E-6,0
STARLINK-31457,2024-064S,2026-06-13T20:47:46.491648,15.27577174,.00012547,42.9976,226.1632,286.2564,73.8149,0,U,59414,999,12401,.15928589E-4,.176E-5,0
STARLINK-31398,2024-064T,2026-06-13T22:02:02.823072,15.27562103,.00018504,42.9997,232.6517,328.6335,31.4406,0,U,59415,999,12394,.12756778E-3,.3248E-4,0
STARLINK-31399,2024-064U,2026-06-13T21:52:47.176032,15.27577974,.00013669,43.0040,232.5881,270.3089,89.7606,0,U,59416,999,12394,.7860819E-5,-.46E-6,0
STARLINK-31401,2024-064V,2026-06-13T20:38:31.849440,15.27579920,.00012377,43.0024,226.1400,270.5644,89.5066,0,U,59417,999,12376,.5016961E-5,-.124E-5,0
STARLINK-31414,2024-064W,2026-06-12T11:47:14.435520,15.27589035,.00029402,43.0153,240.8615,282.7600,77.2923,0,U,59418,999,12372,.3815777E-4,.787E-5,0
STARLINK-31415,2024-064X,2026-06-13T11:56:35.977632,15.27581134,.00013716,42.9971,235.5058,273.2847,86.7848,0,U,59419,999,12387,.29317436E-4,.545E-5,0
STARLINK-31466,2024-064Y,2026-06-13T11:51:02.534976,15.27585386,.00007436,43.0062,235.4785,279.3009,80.7758,0,U,59420,999,12387,.44234077E-4,.956E-5,0
STARLINK-11087 [DTC],2024-065A,2026-06-13T18:46:05.362464,15.69697339,.00004136,53.1589,340.3249,110.0815,250.0247,0,U,59421,999,12660,-.1377731E-5,-.754E-5,0
STARLINK-11090 [DTC],2024-065B,2026-06-13T18:24:53.087904,15.69716092,.00004627,53.1571,340.2224,94.1733,265.9338,0,U,59422,999,12662,.17658495E-4,.1553E-4,0
STARLINK-11093 [DTC],2024-065C,2026-06-13T18:31:57.419040,15.69701981,.0001104,53.1601,340.2591,81.1039,279.0104,0,U,59423,999,12661,.243147E-5,-.294E-5,0
STARLINK-11083 [DTC],2024-065D,2026-06-13T18:39:01.153152,15.69702819,.00013022,53.1598,340.2924,131.6855,228.4274,0,U,59424,999,12656,.4236088E-5,-.76E-6,0
STARLINK-11085 [DTC],2024-065E,2026-06-13T18:17:49.504128,15.69705214,.00011242,53.1601,340.1913,97.2463,262.8682,0,U,59425,999,12656,.3458372E-5,-.17E-5,0
STARLINK-11089 [DTC],2024-065F,2026-06-13T17:21:27.820224,15.69705562,.0001002,53.1599,340.6787,76.8020,283.3109,0,U,59426,999,12660,.255897E-5,-.278E-5,0
STARLINK-31757,2024-065G,2026-06-13T19:42:14.755104,15.34388480,.00011917,53.1608,194.7359,84.6021,275.5118,0,U,59427,999,12365,.3970032E-5,-.242E-5,0
STARLINK-31773,2024-065J,2026-06-13T09:08:52.624032,15.30199166,.00010053,53.1592,199.0860,82.6226,277.4889,0,U,59429,999,12355,.58204119E-4,.1365E-4,0
STARLINK-31772,2024-065K,2026-06-13T18:36:59.774112,15.30193482,.00011048,53.1599,195.1489,97.0133,263.0993,0,U,59430,999,12364,.6310961E-5,-.172E-5,0
STARLINK-31613,2024-065L,2026-06-13T13:36:08.578944,15.34410993,.0001239,53.1588,195.9826,75.9856,284.1284,0,U,59431,999,12361,.13148E-3,.407E-4,0
